[{"OBJECT_NAME":"YAOGAN-12","OBJECT_ID":"2011-066B","EPOCH":"2026-03-09T23:39:51.505056","MEAN_MOTION":15.25407482,"ECCENTRICITY":0.00091131,"INCLINATION":97.1283,"RA_OF_ASC_NODE":112.2403,"ARG_OF_PERICENTER":209.5466,"MEAN_ANOMALY":150.5259,"EPHEMERIS_TYPE":0,"CLASSIFICATION_TYPE":"U","NORAD_CAT_ID":37875,"ELEMENT_SET_NO":999,"REV_AT_EPOCH":79691,"BSTAR":0.0002218082,"MEAN_MOTION_DOT":5.54e-5,"MEAN_MOTION_DDOT":0},{"OBJECT_NAME":"STARLINK-30852","OBJECT_ID":"2023-177Y","EPOCH":"2026-03-09T22:00:01.999584","MEAN_MOTION":15.26744834,"ECCENTRICITY":0.00015065,"INCLINATION":43.0011,"RA_OF_ASC_NODE":349.0614,"ARG_OF_PERICENTER":259.0047,"MEAN_ANOMALY":143.1392,"EPHEMERIS_TYPE":0,"CLASSIFICATION_TYPE":"U","NORAD_CAT_ID":58373,"ELEMENT_SET_NO":999,"REV_AT_EPOCH":578,"BSTAR":-0.0004563717,"MEAN_MOTION_DOT":-0.00012483,"MEAN_MOTION_DDOT":0}]
